NORAD_CAT_ID,OBJECT_NAME,OBJECT_TYPE,EPOCH,MEAN_MOTION,ECCENTRICITY,INCLINATION,RA_OF_ASC_NODE,ARG_OF_PERICENTER,MEAN_ANOMALY,BSTAR,MEAN_MOTION_DOT,MEAN_MOTION_DDOT,TLE_LINE0,TLE_LINE1,TLE_LINE2,SEMIMAJOR_AXIS,PERIOD,APOGEE,PERIGEE,DECAYED
52486.0,STARLINK-3918,PAYLOAD,2023-10-10 13:23:28,15.08845482,0.0001363,53.2178,54.6775,92.1107,268.0041,0.00012282,1.668e-05,0.0,0 STARLINK-3918,1 52486U 22049AM  23283.55796741  .00001668  00000-0  12282-3 0  9993,2 52486  53.2178  54.6775 0001363  92.1107 268.0041 15.08845482 79237,6917.864,95.437,540.672,538.786,0.0
52486.0,STARLINK-3918,PAYLOAD,2023-10-10 16:34:14,15.08854319,0.0001434,53.2184,54.0811,95.1962,264.9194,0.00023869,3.514e-05,0.0,0 STARLINK-3918,1 52486U 22049AM  23283.69044246  .00003514  00000-0  23869-3 0  9999,2 52486  53.2184  54.0811 0001434  95.1962 264.9194 15.08854319 79255,6917.837,95.437,540.694,538.71,0.0
52486.0,STARLINK-3918,PAYLOAD,2023-10-11 13:14:15,15.08837448,0.0001575,53.2201,50.2157,91.3127,268.8045,4.8859e-05,4.9e-06,0.0,0 STARLINK-3918,1 52486U 22049AM  23284.55157362  .00000490  00000-0  48859-4 0  9996,2 52486  53.2201  50.2157 0001575  91.3127 268.8045 15.08837448 79547,6917.888,95.438,540.843,538.664,0.0
52486.0,STARLINK-3918,PAYLOAD,2023-10-11 19:35:47,15.08849529,0.0001578,53.2181,49.0236,85.0203,275.097,0.00014453,2.014e-05,0.0,0 STARLINK-3918,1 52486U 22049AM  23284.81652683  .00002014  00000-0  14453-3 0  9997,2 52486  53.2181  49.0236 0001578  85.0203 275.0970 15.08849529 79580,6917.851,95.437,540.808,538.625,0.0
52486.0,STARLINK-3918,PAYLOAD,2023-10-12 01:57:21,15.08836365,0.0001404,53.2184,47.837,87.0705,273.0448,1.9701e-05,2.6e-07,0.0,0 STARLINK-3918,1 52486U 22049AM  23285.08149586  .00000026  00000-0  19701-4 0  9993,2 52486  53.2184  47.8370 0001404  87.0705 273.0448 15.08836365 79622,6917.891,95.438,540.728,538.785,0.0
52486.0,STARLINK-3918,PAYLOAD,2023-10-12 14:40:25,15.08848114,0.0001428,53.2186,45.456,92.7624,267.3532,9.2021e-05,1.177e-05,0.0,0 STARLINK-3918,1 52486U 22049AM  23285.61140747  .00001177  00000-0  92021-4 0  9996,2 52486  53.2186  45.4560 0001428  92.7624 267.3532 15.08848114 79544,6917.856,95.437,540.708,538.733,0.0
52486.0,STARLINK-3918,PAYLOAD,2023-10-12 17:51:11,15.08852103,0.0001601,53.2178,44.8605,91.115,269.0025,0.00033016,4.972e-05,0.0,0 STARLINK-3918,1 52486U 22049AM  23285.74388681  .00004972  00000-0  33016-3 0  9995,2 52486  53.2178  44.8605 0001601  91.1150 269.0025 15.08852103 79727,6917.843,95.437,540.816,538.601,0.0
52486.0,STARLINK-3918,PAYLOAD,2023-10-13 12:55:50,15.08843235,0.0001725,53.2183,41.2918,97.0457,263.0731,0.00017699,2.53e-05,0.0,0 STARLINK-3918,1 52486U 22049AM  23286.53877433  .00002530  00000-0  17699-3 0  9998,2 52486  53.2183  41.2918 0001725  97.0457 263.0731 15.08843235 79840,6917.871,95.437,540.929,538.542,0.0
52486.0,STARLINK-3918,PAYLOAD,2023-10-13 14:31:13,15.08848158,0.0001625,53.2182,40.9943,90.0231,270.0947,0.0002973,4.448e-05,0.0,0 STARLINK-3918,1 52486U 22049AM  23286.60501327  .00004448  00000-0  29730-3 0  9991,2 52486  53.2182  40.9943 0001625  90.0231 270.0947 15.08848158 79694,6917.855,95.437,540.845,538.596,0.0
52486.0,STARLINK-3918,PAYLOAD,2023-10-14 12:46:36,15.0885112,0.0001498,53.2181,36.8322,88.8383,271.2781,0.00042715,6.519e-05,0.0,0 STARLINK-3918,1 52486U 22049AM  23287.53237150  .00006519  00000-0  42715-3 0  9993,2 52486  53.2181  36.8322 0001498  88.8383 271.2781 15.08851120 79837,6917.846,95.437,540.748,538.675,0.0
52486.0,STARLINK-3918,PAYLOAD,2023-10-14 17:32:46,15.08857266,0.000158,53.2189,35.938,88.8846,271.2327,0.00045105,6.901e-05,0.0,0 STARLINK-3918,1 52486U 22049AM  23287.73108816  .00006901  00000-0  45105-3 0  9992,2 52486  53.2189  35.9380 0001580  88.8846 271.2327 15.08857266 80021,6917.828,95.436,540.786,538.6,0.0
52486.0,STARLINK-3918,PAYLOAD,2023-10-14 23:54:19,15.08831049,0.0001717,53.2194,34.7512,85.0436,275.0753,-0.00011588,-2.131e-05,0.0,0 STARLINK-3918,1 52486U 22049AM  23287.99605543 -.00002131  00000-0 -11588-3 0  9990,2 52486  53.2194  34.7512 0001717  85.0436 275.0753 15.08831049 80067,6917.908,95.438,540.961,538.585,0.0
52486.0,STARLINK-3918,PAYLOAD,2023-10-15 14:12:47,15.08833313,0.0001296,53.2177,32.0779,96.2986,263.8154,1.6919e-05,-1.9e-07,0.0,0 STARLINK-3918,1 52486U 22049AM  23288.59221774 -.00000019  00000-0  16919-4 0  9993,2 52486  53.2177  32.0779 0001296  96.2986 263.8154 15.08833313 79996,6917.901,95.438,540.662,538.869,0.0
52486.0,STARLINK-3918,PAYLOAD,2023-10-15 17:23:33,15.0883954,0.0001279,53.2181,31.4819,96.6054,263.5084,0.00036994,5.605e-05,0.0,0 STARLINK-3918,1 52486U 22049AM  23288.72469750  .00005605  00000-0  36994-3 0  9995,2 52486  53.2181  31.4819 0001279  96.6054 263.5084 15.08839540 80179,6917.882,95.438,540.632,538.862,0.0
52486.0,STARLINK-3918,PAYLOAD,2023-10-16 07:42:02,15.08838297,0.0001228,53.2179,28.8059,96.2056,263.9076,0.00072726,0.00011305,0.0,0 STARLINK-3918,1 52486U 22049AM  23289.32086372  .00011305  00000-0  72726-3 0  9994,2 52486  53.2179  28.8059 0001228  96.2056 263.9076 15.08838297 80267,6917.886,95.438,540.6,538.901,0.0
52486.0,STARLINK-3918,PAYLOAD,2023-10-16 14:03:34,15.088471,0.0001222,53.2182,27.6163,93.6752,266.438,0.000664,0.00010297,0.0,0 STARLINK-3918,1 52486U 22049AM  23289.58582174  .00010297  00000-0  66400-3 0  9994,2 52486  53.2182  27.6163 0001222  93.6752 266.4380 15.08847100 80148,6917.859,95.437,540.569,538.878,0.0
52486.0,STARLINK-3918,PAYLOAD,2023-10-16 15:38:57,15.08853048,0.00012,53.2178,27.3192,102.7238,257.3888,0.00064331,9.969e-05,0.0,0 STARLINK-3918,1 52486U 22049AM  23289.65205975  .00009969  00000-0  64331-3 0  9998,2 52486  53.2178  27.3192 0001200 102.7238 257.3888 15.08853048 80150,6917.841,95.437,540.536,538.875,0.0
52486.0,STARLINK-3918,PAYLOAD,2023-10-17 12:18:58,15.08847402,0.0001515,53.2176,23.4531,105.4706,254.6453,0.00033676,5.077e-05,0.0,0 STARLINK-3918,1 52486U 22049AM  23290.51318143  .00005077  00000-0  33676-3 0  9991,2 52486  53.2176  23.4531 0001515 105.4706 254.6453 15.08847402 80448,6917.858,95.437,540.771,538.675,0.0
52486.0,STARLINK-3918,PAYLOAD,2023-10-17 23:26:41,15.08843551,0.0001739,53.218,21.3723,77.9337,282.185,0.00021094,3.071e-05,0.0,0 STARLINK-3918,1 52486U 22049AM  23290.97686439  .00003071  00000-0  21094-3 0  9990,2 52486  53.2180  21.3723 0001739  77.9337 282.1850 15.08843551 80352,6917.87,95.437,540.938,538.532,0.0
52486.0,STARLINK-3918,PAYLOAD,2023-10-18 12:09:45,15.0884447,0.0001369,53.2165,18.9944,78.2962,281.8184,0.00014504,2.021e-05,0.0,0 STARLINK-3918,1 52486U 22049AM  23291.50678232  .00002021  00000-0  14504-3 0  9994,2 52486  53.2165  18.9944 0001369  78.2962 281.8184 15.08844470 80592,6917.867,95.437,540.679,538.785,0.0
52486.0,STARLINK-3918,PAYLOAD,2023-10-19 12:00:32,15.08857931,0.0001553,53.2173,14.5329,83.9634,276.1535,0.00048167,7.39e-05,0.0,0 STARLINK-3918,1 52486U 22049AM  23292.50037716  .00007390  00000-0  48167-3 0  9997,2 52486  53.2173  14.5329 0001553  83.9634 276.1535 15.08857931 80586,6917.826,95.436,540.765,538.616,0.0
52486.0,STARLINK-3918,PAYLOAD,2023-10-19 15:11:18,15.0887312,0.0001389,53.2163,13.9388,97.3474,262.7676,0.00075557,0.00011768,0.0,0 STARLINK-3918,1 52486U 22049AM  23292.63284977  .00011768  00000-0  75557-3 0  9991,2 52486  53.2163  13.9388 0001389  97.3474 262.7676 15.08873120 80766,6917.779,95.435,540.605,538.683,0.0
52486.0,STARLINK-3918,PAYLOAD,2023-10-19 23:08:14,15.0884685,0.0001259,53.2182,12.4518,88.844,271.2696,0.00011177,1.492e-05,0.0,0 STARLINK-3918,1 52486U 22049AM  23292.96405653  .00001492  00000-0  11177-3 0  9994,2 52486  53.2182  12.4518 0001259  88.8440 271.2696 15.08846850 80813,6917.859,95.437,540.595,538.853,0.0
52486.0,STARLINK-3918,PAYLOAD,2023-10-20 11:51:19,15.08838229,0.0001682,53.2177,10.0711,105.3025,254.8154,-3.7391e-05,-8.83e-06,0.0,0 STARLINK-3918,1 52486U 22049AM  23293.49398130 -.00000883  00000-0 -37391-4 0  9996,2 52486  53.2177  10.0711 0001682 105.3025 254.8154 15.08838229 80895,6917.886,95.438,540.914,538.587,0.0
52486.0,STARLINK-3918,PAYLOAD,2023-10-21 11:42:07,15.08845142,0.0001613,53.2193,5.612,87.2717,272.846,0.00020546,2.984e-05,0.0,0 STARLINK-3918,1 52486U 22049AM  23294.48758258  .00002984  00000-0  20546-3 0  9992,2 52486  53.2193   5.6120 0001613  87.2717 272.8460 15.08845142 80888,6917.865,95.437,540.846,538.614,0.0
52486.0,STARLINK-3918,PAYLOAD,2023-10-22 05:11:22,15.08833127,9.59e-05,53.218,2.342,79.2895,280.8205,0.00019082,2.75e-05,0.0,0 STARLINK-3918,1 52486U 22049AM  23295.21623163  .00002750  00000-0  19082-3 0  9994,2 52486  53.2180   2.3420 0000959  79.2895 280.8205 15.08833127 81158,6917.901,95.438,540.43,539.103,0.0
52486.0,STARLINK-3918,PAYLOAD,2023-10-22 11:32:54,15.08839968,0.00015,53.2182,1.1529,99.8848,260.2314,0.00025054,3.702e-05,0.0,0 STARLINK-3918,1 52486U 22049AM  23295.48118980  .00003702  00000-0  25054-3 0  9993,2 52486  53.2182   1.1529 0001500  99.8848 260.2314 15.08839968 81035,6917.88,95.438,540.783,538.708,0.0
52486.0,STARLINK-3918,PAYLOAD,2023-10-22 21:05:13,15.08836262,0.0001409,53.2178,359.3693,96.2347,263.8806,0.00010534,1.389e-05,0.0,0 STARLINK-3918,1 52486U 22049AM  23295.87863190  .00001389  00000-0  10534-3 0  9992,2 52486  53.2178 359.3693 0001409  96.2347 263.8806 15.08836262 81098,6917.892,95.438,540.732,538.782,0.0
52486.0,STARLINK-3918,PAYLOAD,2023-10-23 09:48:19,15.08835552,0.0001365,53.218,356.991,92.3535,267.7613,9.4723e-05,1.22e-05,0.0,0 STARLINK-3918,1 52486U 22049AM  23296.40855434  .00001220  00000-0  94723-4 0  9991,2 52486  53.2180 356.9910 0001365  92.3535 267.7613 15.08835552 81330,6917.894,95.438,540.703,538.815,0.0
52486.0,STARLINK-3918,PAYLOAD,2023-10-23 20:56:00,15.08841582,0.0001517,53.2187,354.9097,95.2563,264.8603,6.2518e-05,7.07e-06,0.0,0 STARLINK-3918,1 52486U 22049AM  23296.87223104  .00000707  00000-0  62518-4 0  9991,2 52486  53.2187 354.9097 0001517  95.2563 264.8603 15.08841582 81240,6917.876,95.437,540.79,538.691,0.0
